CCSDS_OMM_VERS = 2.0
CREATION_DATE  = 
ORIGINATOR     = 

OBJECT_NAME    = OKEAN-3
OBJECT_ID      = 1991-039A
CENTER_NAME    = EARTH
REF_FRAME      = TEME
TIME_SYSTEM    = UTC
MEAN_ELEMENT_THEORY = SGP/SGP4

EPOCH          = 2025-11-02T11:53:01.711680
MEAN_MOTION    = 15.03701528
ECCENTRICITY   = .0015721
INCLINATION    = 82.5130
RA_OF_ASC_NODE = 99.9865
ARG_OF_PERICENTER = 47.3118
MEAN_ANOMALY   = 312.9429

EPHEMERIS_TYPE = 0
CLASSIFICATION_TYPE = U
NORAD_CAT_ID   = 21397
ELEMENT_SET_NO = 999
REV_AT_EPOCH   = 84591
BSTAR          = .2746E-3
MEAN_MOTION_DOT = .38E-4
MEAN_MOTION_DDOT = 0

CCSDS_OMM_VERS = 2.0
CREATION_DATE  = 
ORIGINATOR     = 

OBJECT_NAME    = COSMOS 2151
OBJECT_ID      = 1991-042A
CENTER_NAME    = EARTH
REF_FRAME      = TEME
TIME_SYSTEM    = UTC
MEAN_ELEMENT_THEORY = SGP/SGP4

EPOCH          = 2025-11-02T10:53:02.444064
MEAN_MOTION    = 14.99463610
ECCENTRICITY   = .0013871
INCLINATION    = 82.4993
RA_OF_ASC_NODE = 206.3127
ARG_OF_PERICENTER = 123.7707
MEAN_ANOMALY   = 236.4841

EPHEMERIS_TYPE = 0
CLASSIFICATION_TYPE = U
NORAD_CAT_ID   = 21422
ELEMENT_SET_NO = 999
REV_AT_EPOCH   = 84412
BSTAR          = .17519E-3
MEAN_MOTION_DOT = .2178E-4
MEAN_MOTION_DDOT = 0

CCSDS_OMM_VERS = 2.0
CREATION_DATE  = 
ORIGINATOR     = 

OBJECT_NAME    = SL-14 R/B
OBJECT_ID      = 1991-042B
CENTER_NAME    = EARTH
REF_FRAME      = TEME
TIME_SYSTEM    = UTC
MEAN_ELEMENT_THEORY = SGP/SGP4

EPOCH          = 2025-11-02T11:10:52.570272
MEAN_MOTION    = 14.81683953
ECCENTRICITY   = .0015683
INCLINATION    = 82.4933
RA_OF_ASC_NODE = 339.4943
ARG_OF_PERICENTER = 302.0907
MEAN_ANOMALY   = 57.8784

EPHEMERIS_TYPE = 0
CLASSIFICATION_TYPE = U
NORAD_CAT_ID   = 21423
ELEMENT_SET_NO = 999
REV_AT_EPOCH   = 83423
BSTAR          = .60817E-4
MEAN_MOTION_DOT = .502E-5
MEAN_MOTION_DDOT = 0

CCSDS_OMM_VERS = 2.0
CREATION_DATE  = 
ORIGINATOR     = 

OBJECT_NAME    = ERS-1
OBJECT_ID      = 1991-050A
CENTER_NAME    = EARTH
REF_FRAME      = TEME
TIME_SYSTEM    = UTC
MEAN_ELEMENT_THEORY = SGP/SGP4

EPOCH          = 2025-11-02T11:41:20.510016
MEAN_MOTION    = 14.39317145
ECCENTRICITY   = .0031331
INCLINATION    = 98.7931
RA_OF_ASC_NODE = 316.5301
ARG_OF_PERICENTER = 218.1427
MEAN_ANOMALY   = 141.7542

EPHEMERIS_TYPE = 0
CLASSIFICATION_TYPE = U
NORAD_CAT_ID   = 21574
ELEMENT_SET_NO = 999
REV_AT_EPOCH   = 79743
BSTAR          = .14086E-3
MEAN_MOTION_DOT = .393E-5
MEAN_MOTION_DDOT = 0

CCSDS_OMM_VERS = 2.0
CREATION_DATE  = 
ORIGINATOR     = 

OBJECT_NAME    = ARIANE 40 R/B
OBJECT_ID      = 1991-050F
CENTER_NAME    = EARTH
REF_FRAME      = TEME
TIME_SYSTEM    = UTC
MEAN_ELEMENT_THEORY = SGP/SGP4

EPOCH          = 2025-11-02T10:11:05.618112
MEAN_MOTION    = 14.42760275
ECCENTRICITY   = .0004403
INCLINATION    = 98.2226
RA_OF_ASC_NODE = 358.2988
ARG_OF_PERICENTER = 99.0621
MEAN_ANOMALY   = 261.1068

EPHEMERIS_TYPE = 0
CLASSIFICATION_TYPE = U
NORAD_CAT_ID   = 21610
ELEMENT_SET_NO = 999
REV_AT_EPOCH   = 80064
BSTAR          = .14371E-3
MEAN_MOTION_DOT = .437E-5
MEAN_MOTION_DDOT = 0

CCSDS_OMM_VERS = 2.0
CREATION_DATE  = 
ORIGINATOR     = 

OBJECT_NAME    = INTERCOSMOS 25
OBJECT_ID      = 1991-086A
CENTER_NAME    = EARTH
REF_FRAME      = TEME
TIME_SYSTEM    = UTC
MEAN_ELEMENT_THEORY = SGP/SGP4

EPOCH          = 2025-11-02T12:13:26.429088
MEAN_MOTION    = 12.11555767
ECCENTRICITY   = .1488838
INCLINATION    = 82.6090
RA_OF_ASC_NODE = 26.8878
ARG_OF_PERICENTER = 31.0937
MEAN_ANOMALY   = 337.0190

EPHEMERIS_TYPE = 0
CLASSIFICATION_TYPE = U
NORAD_CAT_ID   = 21819
ELEMENT_SET_NO = 999
REV_AT_EPOCH   = 48128
BSTAR          = .29775E-3
MEAN_MOTION_DOT = .154E-4
MEAN_MOTION_DDOT = 0

CCSDS_OMM_VERS = 2.0
CREATION_DATE  = 
ORIGINATOR     = 

OBJECT_NAME    = SL-8 R/B
OBJECT_ID      = 1992-008B
CENTER_NAME    = EARTH
REF_FRAME      = TEME
TIME_SYSTEM    = UTC
MEAN_ELEMENT_THEORY = SGP/SGP4

EPOCH          = 2025-11-02T10:56:57.815808
MEAN_MOTION    = 13.75946797
ECCENTRICITY   = .0035875
INCLINATION    = 82.9298
RA_OF_ASC_NODE = 2.4078
ARG_OF_PERICENTER = 128.8320
MEAN_ANOMALY   = 242.2907

EPHEMERIS_TYPE = 0
CLASSIFICATION_TYPE = U
NORAD_CAT_ID   = 21876
ELEMENT_SET_NO = 999
REV_AT_EPOCH   = 69192
BSTAR          = .90236E-4
MEAN_MOTION_DOT = .103E-5
MEAN_MOTION_DDOT = 0

CCSDS_OMM_VERS = 2.0
CREATION_DATE  = 
ORIGINATOR     = 

OBJECT_NAME    = SL-8 R/B
OBJECT_ID      = 1992-020B
CENTER_NAME    = EARTH
REF_FRAME      = TEME
TIME_SYSTEM    = UTC
MEAN_ELEMENT_THEORY = SGP/SGP4

EPOCH          = 2025-11-02T08:01:33.575232
MEAN_MOTION    = 13.75519962
ECCENTRICITY   = .0027776
INCLINATION    = 82.9298
RA_OF_ASC_NODE = 248.3201
ARG_OF_PERICENTER = 294.9758
MEAN_ANOMALY   = 175.3847

EPHEMERIS_TYPE = 0
CLASSIFICATION_TYPE = U
NORAD_CAT_ID   = 21938
ELEMENT_SET_NO = 999
REV_AT_EPOCH   = 68362
BSTAR          = .43242E-4
MEAN_MOTION_DOT = .57E-6
MEAN_MOTION_DDOT = 0

CCSDS_OMM_VERS = 2.0
CREATION_DATE  = 
ORIGINATOR     = 

OBJECT_NAME    = USA 81
OBJECT_ID      = 1992-023A
CENTER_NAME    = EARTH
REF_FRAME      = TEME
TIME_SYSTEM    = UTC
MEAN_ELEMENT_THEORY = SGP/SGP4

EPOCH          = 2025-11-02T05:39:20.248992
MEAN_MOTION    = 14.32304313
ECCENTRICITY   = .00027677
INCLINATION    = 85.0115
RA_OF_ASC_NODE = 204.9283
ARG_OF_PERICENTER = 85.5828
MEAN_ANOMALY   = 274.5681

EPHEMERIS_TYPE = 0
CLASSIFICATION_TYPE = U
NORAD_CAT_ID   = 21949
ELEMENT_SET_NO = 999
REV_AT_EPOCH   = 7654
BSTAR          = .80436459E-4
MEAN_MOTION_DOT = .237E-5
MEAN_MOTION_DDOT = 0

CCSDS_OMM_VERS = 2.0
CREATION_DATE  = 
ORIGINATOR     = 

OBJECT_NAME    = COSMOS 2219
OBJECT_ID      = 1992-076A
CENTER_NAME    = EARTH
REF_FRAME      = TEME
TIME_SYSTEM    = UTC
MEAN_ELEMENT_THEORY = SGP/SGP4

EPOCH          = 2025-11-02T07:58:47.784864
MEAN_MOTION    = 14.14059015
ECCENTRICITY   = .0017005
INCLINATION    = 71.0596
RA_OF_ASC_NODE = 284.2969
ARG_OF_PERICENTER = 28.7008
MEAN_ANOMALY   = 331.5047

EPHEMERIS_TYPE = 0
CLASSIFICATION_TYPE = U
NORAD_CAT_ID   = 22219
ELEMENT_SET_NO = 999
REV_AT_EPOCH   = 70037
BSTAR          = .2342E-3
MEAN_MOTION_DOT = .399E-5
MEAN_MOTION_DDOT = 0

CCSDS_OMM_VERS = 2.0
CREATION_DATE  = 
ORIGINATOR     = 

OBJECT_NAME    = SL-16 R/B
OBJECT_ID      = 1992-076B
CENTER_NAME    = EARTH
REF_FRAME      = TEME
TIME_SYSTEM    = UTC
MEAN_ELEMENT_THEORY = SGP/SGP4

EPOCH          = 2025-11-02T11:22:15.119040
MEAN_MOTION    = 14.16830505
ECCENTRICITY   = .0014956
INCLINATION    = 70.9981
RA_OF_ASC_NODE = 96.3474
ARG_OF_PERICENTER = 286.3027
MEAN_ANOMALY   = 130.1283

EPHEMERIS_TYPE = 0
CLASSIFICATION_TYPE = U
NORAD_CAT_ID   = 22220
ELEMENT_SET_NO = 999
REV_AT_EPOCH   = 70381
BSTAR          = .16097E-3
MEAN_MOTION_DOT = .275E-5
MEAN_MOTION_DDOT = 0

CCSDS_OMM_VERS = 2.0
CREATION_DATE  = 
ORIGINATOR     = 

OBJECT_NAME    = COSMOS 2221
OBJECT_ID      = 1992-080A
CENTER_NAME    = EARTH
REF_FRAME      = TEME
TIME_SYSTEM    = UTC
MEAN_ELEMENT_THEORY = SGP/SGP4

EPOCH          = 2025-11-02T08:12:09.468000
MEAN_MOTION    = 14.95516094
ECCENTRICITY   = .0013214
INCLINATION    = 82.5065
RA_OF_ASC_NODE = 40.9764
ARG_OF_PERICENTER = 259.0172
MEAN_ANOMALY   = 100.9564

EPHEMERIS_TYPE = 0
CLASSIFICATION_TYPE = U
NORAD_CAT_ID   = 22236
ELEMENT_SET_NO = 999
REV_AT_EPOCH   = 76175
BSTAR          = .25269E-3
MEAN_MOTION_DOT = .2828E-4
MEAN_MOTION_DDOT = 0

