OKEAN-3                 
1 21397U 91039A   25306.49515870  .00003800  00000+0  27460-3 0  9991
2 21397  82.5130  99.9865 0015721  47.3118 312.9429 15.03701528845918
COSMOS 2151             
1 21422U 91042A   25306.45350051  .00002178  00000+0  17519-3 0  9999
2 21422  82.4993 206.3127 0013871 123.7707 236.4841 14.99463610844126
SL-14 R/B               
1 21423U 91042B   25306.46588623  .00000502  00000+0  60817-4 0  9998
2 21423  82.4933 339.4943 0015683 302.0907  57.8784 14.81683953834239
ERS-1                   
1 21574U 91050A   25306.48704294  .00000393  00000+0  14086-3 0  9994
2 21574  98.7931 316.5301 0031331 218.1427 141.7542 14.39317145797435
ARIANE 40 R/B           
1 21610U 91050F   25306.42437058  .00000437  00000+0  14371-3 0  9996
2 21610  98.2226 358.2988 0004403  99.0621 261.1068 14.42760275800642
INTERCOSMOS 25          
1 21819U 91086A   25306.50933367  .00001540  00000+0  29775-3 0  9999
2 21819  82.6090  26.8878 1488838  31.0937 337.0190 12.11555767481286
SL-8 R/B                
1 21876U 92008B   25306.45622472  .00000103  00000+0  90236-4 0  9998
2 21876  82.9298   2.4078 0035875 128.8320 242.2907 13.75946797691928
SL-8 R/B                
1 21938U 92020B   25306.33441638  .00000057  00000+0  43242-4 0  9994
2 21938  82.9298 248.3201 0027776 294.9758 175.3847 13.75519962683624
USA 81                  
1 21949U 92023A   25306.23565103  .00000237  00000+0  80436-4 0  9998
2 21949  85.0115 204.9283 0002767  85.5828 274.5681 14.32304313 76542
COSMOS 2219             
1 22219U 92076A   25306.33249751  .00000399  00000+0  23420-3 0  9994
2 22219  71.0596 284.2969 0017005  28.7008 331.5047 14.14059015700374
SL-16 R/B               
1 22220U 92076B   25306.47378610  .00000275  00000+0  16097-3 0  9993
2 22220  70.9981  96.3474 0014956 286.3027 130.1283 14.16830505703810
COSMOS 2221             
1 22236U 92080A   25306.34177625  .00002828  00000+0  25269-3 0  9991
2 22236  82.5065  40.9764 0013214 259.0172 100.9564 14.95516094761755
